HAWK-2C                 
1 47502U 21006CT  26068.67595434  .00008129  00000+0  25493-3 0  9997
2 47502  97.2417 114.9961 0006943 184.0877 176.0310 15.33286436284247
STARLINK-32862          
1 62864U 25022L   26068.53769444  .00011000  00000+0  38389-3 0  9996
2 62864  53.1575 130.5473 0000611 156.5334 203.5695 15.30119489 61875
